[{"OBJECT_NAME":"DELTA 2 R/B","OBJECT_ID":"1999-041E","EPOCH":"2026-03-02T17:11:40.746912","MEAN_MOTION":14.11811317,"ECCENTRICITY":0.0502317,"INCLINATION":51.7652,"RA_OF_ASC_NODE":329.1309,"ARG_OF_PERICENTER":327.8439,"MEAN_ANOMALY":29.2746,"EPHEMERIS_TYPE":0,"CLASSIFICATION_TYPE":"U","NORAD_CAT_ID":25876,"ELEMENT_SET_NO":999,"REV_AT_EPOCH":36204,"BSTAR":0.00031857,"MEAN_MOTION_DOT":1.746e-5,"MEAN_MOTION_DDOT":0},{"OBJECT_NAME":"HELIOS 1B","OBJECT_ID":"1999-064A","EPOCH":"2026-03-02T17:15:08.823168","MEAN_MOTION":14.87662698,"ECCENTRICITY":0.0002509,"INCLINATION":98.1705,"RA_OF_ASC_NODE":323.7571,"ARG_OF_PERICENTER":84.3567,"MEAN_ANOMALY":275.7935,"EPHEMERIS_TYPE":0,"CLASSIFICATION_TYPE":"U","NORAD_CAT_ID":25977,"ELEMENT_SET_NO":999,"REV_AT_EPOCH":68422,"BSTAR":0.00024946,"MEAN_MOTION_DOT":2.212e-5,"MEAN_MOTION_DDOT":0},{"OBJECT_NAME":"TERRA","OBJECT_ID":"1999-068A","EPOCH":"2026-03-02T19:23:15.487296","MEAN_MOTION":14.61006057,"ECCENTRICITY":0.0002235,"INCLINATION":97.9608,"RA_OF_ASC_NODE":115.505,"ARG_OF_PERICENTER":168.5808,"MEAN_ANOMALY":303.7174,"EPHEMERIS_TYPE":0,"CLASSIFICATION_TYPE":"U","NORAD_CAT_ID":25994,"ELEMENT_SET_NO":999,"REV_AT_EPOCH":39407,"BSTAR":0.00012082,"MEAN_MOTION_DOT":5.48e-6,"MEAN_MOTION_DDOT":0},{"OBJECT_NAME":"SL-16 R/B","OBJECT_ID":"2000-006B","EPOCH":"2026-03-02T14:15:28.689984","MEAN_MOTION":14.15823865,"ECCENTRICITY":0.0017251,"INCLINATION":71.0013,"RA_OF_ASC_NODE":112.7581,"ARG_OF_PERICENTER":199.9346,"MEAN_ANOMALY":160.1105,"EPHEMERIS_TYPE":0,"CLASSIFICATION_TYPE":"U","NORAD_CAT_ID":26070,"ELEMENT_SET_NO":999,"REV_AT_EPOCH":34755,"BSTAR":0.00015675,"MEAN_MOTION_DOT":2.61e-6,"MEAN_MOTION_DDOT":0},{"OBJECT_NAME":"TITAN 4B R/B","OBJECT_ID":"2000-047B","EPOCH":"2026-03-02T19:19:58.575648","MEAN_MOTION":15.09481584,"ECCENTRICITY":0.0037919,"INCLINATION":67.9882,"RA_OF_ASC_NODE":59.8671,"ARG_OF_PERICENTER":43.6018,"MEAN_ANOMALY":316.8117,"EPHEMERIS_TYPE":0,"CLASSIFICATION_TYPE":"U","NORAD_CAT_ID":26474,"ELEMENT_SET_NO":999,"REV_AT_EPOCH":39187,"BSTAR":0.00031231,"MEAN_MOTION_DOT":4.966e-5,"MEAN_MOTION_DDOT":0},{"OBJECT_NAME":"ENVISAT","OBJECT_ID":"2002-009A","EPOCH":"2026-03-02T20:36:28.375200","MEAN_MOTION":14.39033896,"ECCENTRICITY":0.0001346,"INCLINATION":98.3717,"RA_OF_ASC_NODE":15.6191,"ARG_OF_PERICENTER":84.9534,"MEAN_ANOMALY":290.497,"EPHEMERIS_TYPE":0,"CLASSIFICATION_TYPE":"U","NORAD_CAT_ID":27386,"ELEMENT_SET_NO":999,"REV_AT_EPOCH":25819,"BSTAR":6.4556e-5,"MEAN_MOTION_DOT":1.57e-6,"MEAN_MOTION_DDOT":0},{"OBJECT_NAME":"IDEFIX & ARIANE 42P R/B","OBJECT_ID":"2002-021B","EPOCH":"2026-03-02T18:48:17.290080","MEAN_MOTION":14.31020279,"ECCENTRICITY":0.0011181,"INCLINATION":98.5864,"RA_OF_ASC_NODE":0.4726,"ARG_OF_PERICENTER":203.1585,"MEAN_ANOMALY":156.9095,"EPHEMERIS_TYPE":0,"CLASSIFICATION_TYPE":"U","NORAD_CAT_ID":27422,"ELEMENT_SET_NO":999,"REV_AT_EPOCH":24303,"BSTAR":0.00014692,"MEAN_MOTION_DOT":3.43e-6,"MEAN_MOTION_DDOT":0},{"OBJECT_NAME":"AQUA","OBJECT_ID":"2002-022A","EPOCH":"2026-03-02T21:38:17.664576","MEAN_MOTION":14.61956893,"ECCENTRICITY":6.85e-5,"INCLINATION":98.4162,"RA_OF_ASC_NODE":29.1435,"ARG_OF_PERICENTER":56.8605,"MEAN_ANOMALY":326.0417,"EPHEMERIS_TYPE":0,"CLASSIFICATION_TYPE":"U","NORAD_CAT_ID":27424,"ELEMENT_SET_NO":999,"REV_AT_EPOCH":26774,"BSTAR":0.00026639,"MEAN_MOTION_DOT":1.285e-5,"MEAN_MOTION_DDOT":0},{"OBJECT_NAME":"CZ-4B R/B","OBJECT_ID":"2002-024C","EPOCH":"2026-03-02T19:09:25.979040","MEAN_MOTION":14.14546123,"ECCENTRICITY":0.005079,"INCLINATION":98.8854,"RA_OF_ASC_NODE":115.2392,"ARG_OF_PERICENTER":43.5863,"MEAN_ANOMALY":74.0923,"EPHEMERIS_TYPE":0,"CLASSIFICATION_TYPE":"U","NORAD_CAT_ID":27432,"ELEMENT_SET_NO":999,"REV_AT_EPOCH":22826,"BSTAR":5.0114e-5,"MEAN_MOTION_DOT":5.3e-7,"MEAN_MOTION_DDOT":0},{"OBJECT_NAME":"MIDORI II (ADEOS-II)","OBJECT_ID":"2002-056A","EPOCH":"2026-03-02T19:16:37.922880","MEAN_MOTION":14.29278638,"ECCENTRICITY":0.0001837,"INCLINATION":98.7757,"RA_OF_ASC_NODE":20.2338,"ARG_OF_PERICENTER":52.7626,"MEAN_ANOMALY":307.3723,"EPHEMERIS_TYPE":0,"CLASSIFICATION_TYPE":"U","NORAD_CAT_ID":27597,"ELEMENT_SET_NO":999,"REV_AT_EPOCH":20931,"BSTAR":0.00015735,"MEAN_MOTION_DOT":3.55e-6,"MEAN_MOTION_DDOT":0},{"OBJECT_NAME":"H-2A R/B","OBJECT_ID":"2002-056E","EPOCH":"2026-03-02T19:09:44.801280","MEAN_MOTION":14.33755222,"ECCENTRICITY":0.007007,"INCLINATION":98.319,"RA_OF_ASC_NODE":22.4269,"ARG_OF_PERICENTER":181.1545,"MEAN_ANOMALY":240.0865,"EPHEMERIS_TYPE":0,"CLASSIFICATION_TYPE":"U","NORAD_CAT_ID":27601,"ELEMENT_SET_NO":999,"REV_AT_EPOCH":21312,"BSTAR":0.00012447,"MEAN_MOTION_DOT":3.14e-6,"MEAN_MOTION_DDOT":0},{"OBJECT_NAME":"CZ-4B R/B","OBJECT_ID":"2003-049C","EPOCH":"2026-03-02T13:48:42.255648","MEAN_MOTION":14.55011904,"ECCENTRICITY":0.004703,"INCLINATION":98.6871,"RA_OF_ASC_NODE":56.2015,"ARG_OF_PERICENTER":253.0831,"MEAN_ANOMALY":106.5205,"EPHEMERIS_TYPE":0,"CLASSIFICATION_TYPE":"U","NORAD_CAT_ID":28059,"ELEMENT_SET_NO":999,"REV_AT_EPOCH":18556,"BSTAR":0.00012953,"MEAN_MOTION_DOT":5.14e-6,"MEAN_MOTION_DDOT":0},{"OBJECT_NAME":"CZ-2C R/B","OBJECT_ID":"2004-012C","EPOCH":"2026-03-02T16:47:01.749120","MEAN_MOTION":15.63563856,"ECCENTRICITY":0.0013394,"INCLINATION":97.7249,"RA_OF_ASC_NODE":126.3342,"ARG_OF_PERICENTER":338.0425,"MEAN_ANOMALY":22.0257,"EPHEMERIS_TYPE":0,"CLASSIFICATION_TYPE":"U","NORAD_CAT_ID":28222,"ELEMENT_SET_NO":999,"REV_AT_EPOCH":20318,"BSTAR":0.00062271,"MEAN_MOTION_DOT":0.00058146,"MEAN_MOTION_DDOT":0},{"OBJECT_NAME":"SL-16 R/B","OBJECT_ID":"2004-021B","EPOCH":"2026-03-02T19:26:27.313440","MEAN_MOTION":14.14599702,"ECCENTRICITY":0.000369,"INCLINATION":70.9991,"RA_OF_ASC_NODE":246.9308,"ARG_OF_PERICENTER":23.6426,"MEAN_ANOMALY":336.4865,"EPHEMERIS_TYPE":0,"CLASSIFICATION_TYPE":"U","NORAD_CAT_ID":28353,"ELEMENT_SET_NO":999,"REV_AT_EPOCH":12186,"BSTAR":-2.794e-5,"MEAN_MOTION_DOT":-1.01e-6,"MEAN_MOTION_DDOT":0},{"OBJECT_NAME":"CZ-4B R/B","OBJECT_ID":"2004-035C","EPOCH":"2026-03-02T15:28:37.448832","MEAN_MOTION":15.28910749,"ECCENTRICITY":0.0031865,"INCLINATION":97.351,"RA_OF_ASC_NODE":95.9723,"ARG_OF_PERICENTER":357.0727,"MEAN_ANOMALY":3.0321,"EPHEMERIS_TYPE":0,"CLASSIFICATION_TYPE":"U","NORAD_CAT_ID":28415,"ELEMENT_SET_NO":999,"REV_AT_EPOCH":17883,"BSTAR":0.00035643,"MEAN_MOTION_DOT":0.0001009,"MEAN_MOTION_DDOT":0},{"OBJECT_NAME":"CZ-2C R/B","OBJECT_ID":"2004-046B","EPOCH":"2026-03-02T18:05:58.418304","MEAN_MOTION":14.26989516,"ECCENTRICITY":0.0139468,"INCLINATION":98.1988,"RA_OF_ASC_NODE":337.1695,"ARG_OF_PERICENTER":174.9003,"MEAN_ANOMALY":185.3638,"EPHEMERIS_TYPE":0,"CLASSIFICATION_TYPE":"U","NORAD_CAT_ID":28480,"ELEMENT_SET_NO":999,"REV_AT_EPOCH":10751,"BSTAR":7.2804e-5,"MEAN_MOTION_DOT":1.56e-6,"MEAN_MOTION_DDOT":0},{"OBJECT_NAME":"ARIANE 5 R/B","OBJECT_ID":"2004-049H","EPOCH":"2026-03-02T10:10:53.681088","MEAN_MOTION":14.85249915,"ECCENTRICITY":0.00844684,"INCLINATION":98.2615,"RA_OF_ASC_NODE":229.6099,"ARG_OF_PERICENTER":15.4673,"MEAN_ANOMALY":344.9092,"EPHEMERIS_TYPE":0,"CLASSIFICATION_TYPE":"U","NORAD_CAT_ID":28499,"ELEMENT_SET_NO":999,"REV_AT_EPOCH":14471,"BSTAR":0.00011590943,"MEAN_MOTION_DOT":9.95e-6,"MEAN_MOTION_DDOT":0}]
